[{"OBJECT_NAME":"STARLINK-33987","OBJECT_ID":"2025-094K","EPOCH":"2026-03-09T21:13:28.140672","MEAN_MOTION":14.98338803,"ECCENTRICITY":0.00031592,"INCLINATION":70.0016,"RA_OF_ASC_NODE":233.9125,"ARG_OF_PERICENTER":275.9002,"MEAN_ANOMALY":84.1796,"EPHEMERIS_TYPE":0,"CLASSIFICATION_TYPE":"U","NORAD_CAT_ID":63873,"ELEMENT_SET_NO":999,"REV_AT_EPOCH":4723,"BSTAR":0.00073663621,"MEAN_MOTION_DOT":8.709e-5,"MEAN_MOTION_DDOT":0},{"OBJECT_NAME":"ARIANE 2 DEB","OBJECT_ID":"1988-040E","EPOCH":"2026-03-09T12:19:46.322976","MEAN_MOTION":2.29340333,"ECCENTRICITY":0.7173101,"INCLINATION":7.7514,"RA_OF_ASC_NODE":28.2943,"ARG_OF_PERICENTER":18.1667,"MEAN_ANOMALY":357.7238,"EPHEMERIS_TYPE":0,"CLASSIFICATION_TYPE":"U","NORAD_CAT_ID":27595,"ELEMENT_SET_NO":999,"REV_AT_EPOCH":19733,"BSTAR":0.0020996479,"MEAN_MOTION_DOT":3.06e-6,"MEAN_MOTION_DDOT":0}]
